     2.10           NAVIGATION DATA                         RINEX VERSION / TYPE
SPIDER V4,0,0,3554                      2015 03 15 00:50    PGM / RUN BY / DATE 
   1.6764D-08  0.0000D+00 -1.1921D-07  5.9605D-08           ION ALPHA           
   1.2288D+05 -3.2768D+04 -1.9661D+05 -6.5536D+04           ION BETA            
    9.313225746155D-10-3.552713678801D-15   589824     1833 DELTA-UTC: A0,A1,T,W
    16                                                      LEAP SECONDS        
                                                            END OF HEADER       
18 15 02 26 04 00  0.0 3.822925500572D-04 2.842170943040D-12 0.000000000000D+00
    9.600000000000D+01-1.331250000000D+01 5.297006389071D-09-2.255532437191D+00
   -7.413327693939D-07 1.577494782396D-02 7.143244147301D-06 5.153756814957D+03
    3.600000000000D+05 1.732259988785D-07 7.240833051132D-01-1.378357410431D-07
    9.253603475785D-01 2.212187500000D+02-1.988532641383D+00-8.134624529532D-09
   -9.393248678879D-11 1.000000000000D+00 1.833000000000D+03 0.000000000000D+00
    2.000000000000D+00 0.000000000000D+00-1.117587089539D-08 9.600000000000D+01
    3.600000000000D+05 0.000000000000D+00
21 15 02 26 04 00  0.0-4.206285811961D-04-3.979039320257D-12 0.000000000000D+00
    6.000000000000D+01-1.937500000000D+00 5.259861879381D-09-1.229675966631D+00
    1.620501279831D-07 2.228295616806D-02 7.268041372299D-06 5.153604162216D+03
    3.600000000000D+05 2.067536115646D-07-3.192931016222D-01 5.234032869339D-07
    9.338227815357D-01 2.227187500000D+02-1.942265610084D+00-8.459281275464D-09
    9.536111483799D-11 1.000000000000D+00 1.833000000000D+03 0.000000000000D+00
    5.700000000000D+00 0.000000000000D+00-1.164153218269D-08 6.000000000000D+01
    3.600000000000D+05 0.000000000000D+00
11 15 02 26 04 00  0.0-5.604480393231D-04-2.614797267597D-12 0.000000000000D+00
    1.050000000000D+02-1.062500000000D+01 6.370265204225D-09-1.514201491770D-01
   -3.986060619354D-07 1.562258915510D-02 7.592141628265D-06 5.153724325180D+03
    3.600000000000D+05-2.067536115646D-07-6.430658441936D-01 1.639127731323D-07
    8.926041459398D-01 1.973125000000D+02 1.383491576869D+00-9.215384011441D-09
    2.171519075667D-10 1.000000000000D+00 1.833000000000D+03 0.000000000000D+00
    2.000000000000D+00 0.000000000000D+00-1.210719347000D-08 1.050000000000D+02
    3.600000000000D+05 0.000000000000D+00
32 15 02 26 04 00  0.0-2.147052437067D-04 9.208633855451D-12 0.000000000000D+00
    9.700000000000D+01-2.156250000000D+00 4.988422119823D-09 2.717583581807D-01
   -1.490116119385D-07 1.131242839620D-02 7.871538400650D-06 5.153570268631D+03
    3.600000000000D+05 1.844018697739D-07 8.241407779600D-01 4.284083843231D-08
    9.471779493978D-01 2.203125000000D+02 2.405108712717D-02-8.370348858477D-09
   -1.989368531019D-10 1.000000000000D+00 1.833000000000D+03 0.000000000000D+00
    2.000000000000D+00 0.000000000000D+00-3.725290298462D-09 9.700000000000D+01
    3.600000000000D+05 0.000000000000D+00
